{
  "norad_id": 63512,
  "name": "STARLINK-33751",
  "history": [
    {
      "epoch": "2026-04-14T20:21:45.730080Z",
      "apogee_km": 475.8269151373961,
      "perigee_km": 474.5494553228682,
      "latitude_deg": -3.6624531213722906e-05,
      "longitude_deg": -176.36374815685303,
      "height_km": 476.1021140294407,
      "semi_major_axis_km": 6853.325185230132,
      "eccentricity": 9.32e-05,
      "inclination_deg": 53.1569,
      "raan_deg": 332.0958,
      "arg_perigee_deg": 91.4105,
      "mean_anomaly_deg": 268.7002,
      "mean_motion_rev_day": 15.30209004
    },
    {
      "epoch": "2026-04-15T01:03:55.124064Z",
      "apogee_km": 476.0414193344195,
      "perigee_km": 474.26148325784925,
      "latitude_deg": -4.087397762444802e-05,
      "longitude_deg": 111.9942780891839,
      "height_km": 476.06343687609797,
      "semi_major_axis_km": 6853.288451296135,
      "eccentricity": 0.00012986,
      "inclination_deg": 53.1588,
      "raan_deg": 331.1861,
      "arg_perigee_deg": 90.9055,
      "mean_anomaly_deg": 269.2094,
      "mean_motion_rev_day": 15.30221307
    },
    {
      "epoch": "2026-04-16T20:57:25.053696Z",
      "apogee_km": 476.9495419174709,
      "perigee_km": 473.3995265427402,
      "latitude_deg": -6.178264854689423e-05,
      "longitude_deg": 163.31879337989471,
      "height_km": 476.1990420390971,
      "semi_major_axis_km": 6853.311534230105,
      "eccentricity": 0.000259,
      "inclination_deg": 53.1593,
      "raan_deg": 322.6879,
      "arg_perigee_deg": 94.1487,
      "mean_anomaly_deg": 265.9809,
      "mean_motion_rev_day": 15.30213576
    },
    {
      "epoch": "2026-04-17T20:28:12.956736Z",
      "apogee_km": 475.61546437212655,
      "perigee_km": 474.7250826911486,
      "latitude_deg": 3.110841312146938e-05,
      "longitude_deg": 165.1043106357127,
      "height_km": 475.8772589578983,
      "semi_major_axis_km": 6853.307273531637,
      "eccentricity": 6.496e-05,
      "inclination_deg": 53.1591,
      "raan_deg": 318.1386,
      "arg_perigee_deg": 295.735,
      "mean_anomaly_deg": 64.3584,
      "mean_motion_rev_day": 15.30215003
    },
    {
      "epoch": "2026-04-18T19:59:00.565152Z",
      "apogee_km": 476.4751677766135,
      "perigee_km": 473.8311684297578,
      "latitude_deg": -1.5640849678550388e-05,
      "longitude_deg": 166.88695374754442,
      "height_km": 476.37179787098086,
      "semi_major_axis_km": 6853.290168103185,
      "eccentricity": 0.0001929,
      "inclination_deg": 53.1579,
      "raan_deg": 313.5853,
      "arg_perigee_deg": 104.0806,
      "mean_anomaly_deg": 256.0409,
      "mean_motion_rev_day": 15.30220732
    }
  ]
}